[{"OBJECT_NAME":"STARLINK-5528","OBJECT_ID":"2023-083Q","EPOCH":"2026-03-09T10:27:38.287584","MEAN_MOTION":15.02541661,"ECCENTRICITY":9.055e-5,"INCLINATION":43.0025,"RA_OF_ASC_NODE":83.0319,"ARG_OF_PERICENTER":297.633,"MEAN_ANOMALY":62.442,"EPHEMERIS_TYPE":0,"CLASSIFICATION_TYPE":"U","NORAD_CAT_ID":56890,"ELEMENT_SET_NO":999,"REV_AT_EPOCH":15163,"BSTAR":-8.8718872e-5,"MEAN_MOTION_DOT":-1.402e-5,"MEAN_MOTION_DDOT":0},{"OBJECT_NAME":"OBJECT R","OBJECT_ID":"2021-022R","EPOCH":"2026-03-09T22:54:37.456416","MEAN_MOTION":15.08912229,"ECCENTRICITY":0.00182027,"INCLINATION":97.3728,"RA_OF_ASC_NODE":308.5333,"ARG_OF_PERICENTER":149.1845,"MEAN_ANOMALY":211.0456,"EPHEMERIS_TYPE":0,"CLASSIFICATION_TYPE":"U","NORAD_CAT_ID":47947,"ELEMENT_SET_NO":999,"REV_AT_EPOCH":27304,"BSTAR":2.1057411e-5,"MEAN_MOTION_DOT":2.72e-6,"MEAN_MOTION_DDOT":0}]
